NORAD_CAT_ID,OBJECT_NAME,OBJECT_TYPE,EPOCH,MEAN_MOTION,ECCENTRICITY,INCLINATION,RA_OF_ASC_NODE,ARG_OF_PERICENTER,MEAN_ANOMALY,BSTAR,MEAN_MOTION_DOT,MEAN_MOTION_DDOT,TLE_LINE0,TLE_LINE1,TLE_LINE2,SEMIMAJOR_AXIS,PERIOD,APOGEE,PERIGEE,DECAYED
53976.0,STARLINK-5134,PAYLOAD,2023-01-08 09:16:02,15.08829646,0.000191,53.2156,354.7458,40.8788,319.2347,0.00012217,1.656e-05,0.0,0 STARLINK-5134,1 53976U 22125N   23008.38613608  .00001656  00000-0  12217-3 0  9994,2 53976  53.2156 354.7458 0001910  40.8788 319.2347 15.08829646 15044,6917.911999999998,95.438,541.0980000000002,538.456,0.0
53976.0,STARLINK-5134,PAYLOAD,2023-01-09 02:45:16,15.08840962,0.0001853,53.2157,351.4744,45.3816,314.7327,0.00020125,2.916e-05,0.0,0 STARLINK-5134,1 53976U 22125N   23009.11477184  .00002916  00000-0  20125-3 0  9990,2 53976  53.2157 351.4744 0001853  45.3816 314.7327 15.08840962 15227,6917.877,95.437,541.024,538.461,0.0
53976.0,STARLINK-5134,PAYLOAD,2023-01-09 07:31:25,15.0884146,0.0001874,53.2157,350.5822,46.8236,313.2912,0.00019087,2.751e-05,0.0,0 STARLINK-5134,1 53976U 22125N   23009.31349195  .00002751  00000-0  19087-3 0  9994,2 53976  53.2157 350.5822 0001874  46.8236 313.2912 15.08841460 15182,6917.876,95.437,541.0369999999998,538.445,0.0
53976.0,STARLINK-5134,PAYLOAD,2023-01-09 15:28:21,15.0883622,0.0001887,53.2156,349.0953,47.6091,312.506,5.7558e-05,6.28e-06,0.0,0 STARLINK-5134,1 53976U 22125N   23009.64469524  .00000628  00000-0  57558-4 0  9996,2 53976  53.2156 349.0953 0001887  47.6091 312.5060 15.08836220 15309,6917.892,95.438,541.062,538.452,0.0
53976.0,STARLINK-5134,PAYLOAD,2023-01-10 10:32:59,15.08837682,0.0001831,53.2148,345.5271,46.6942,313.4203,4.0854e-05,3.62e-06,0.0,0 STARLINK-5134,1 53976U 22125N   23010.43957553  .00000362  00000-0  40854-4 0  9995,2 53976  53.2148 345.5271 0001831  46.6942 313.4203 15.08837682 15354,6917.887,95.438,541.019,538.486,0.0
53976.0,STARLINK-5134,PAYLOAD,2023-01-10 21:40:42,15.08825857,0.0001974,53.2137,343.444,59.7432,300.3756,-0.00014008,-2.516e-05,0.0,0 STARLINK-5134,1 53976U 22125N   23010.90326572 -.00002516  00000-0 -14008-3 0  9994,2 53976  53.2137 343.4440 0001974  59.7432 300.3756 15.08825857 15421,6917.924,95.438,541.154,538.423,0.0
53976.0,STARLINK-5134,PAYLOAD,2023-01-11 04:02:14,15.08833305,0.0001736,53.2144,342.2547,56.3075,303.8082,2.7065e-05,1.43e-06,0.0,0 STARLINK-5134,1 53976U 22125N   23011.16822408  .00000143  00000-0  27065-4 0  9992,2 53976  53.2144 342.2547 0001736  56.3075 303.8082 15.08833305 15535,6917.901,95.438,540.967,538.565,0.0
53976.0,STARLINK-5134,PAYLOAD,2023-01-11 10:23:46,15.08842356,0.0001791,53.2142,341.0651,56.0059,304.1103,0.00029539,4.416e-05,0.0,0 STARLINK-5134,1 53976U 22125N   23011.43318208  .00004416  00000-0  29539-3 0  9994,2 53976  53.2142 341.0651 0001791  56.0059 304.1103 15.08842356 15507,6917.873000000001,95.437,540.977,538.499,0.0
53976.0,STARLINK-5134,PAYLOAD,2023-01-11 21:31:29,15.08828091,0.0001692,53.2148,338.9843,60.1561,299.96,0.00028457,4.242e-05,0.0,0 STARLINK-5134,1 53976U 22125N   23011.89687150  .00004242  00000-0  28457-3 0  9994,2 53976  53.2148 338.9843 0001692  60.1561 299.9600 15.08828091 15575,6917.917,95.438,540.952,538.611,0.0
53976.0,STARLINK-5134,PAYLOAD,2023-01-12 15:00:44,15.08848932,0.0001836,53.2148,335.7139,69.3869,290.732,0.0010683,0.00016759,0.0,0 STARLINK-5134,1 53976U 22125N   23012.62551117  .00016759  00000-0  10683-2 0  9996,2 53976  53.2148 335.7139 0001836  69.3869 290.7320 15.08848932 15754,6917.853,95.437,540.988,538.448,0.0
53976.0,STARLINK-5134,PAYLOAD,2023-01-13 03:43:49,15.08848843,0.0001548,53.2147,333.3345,78.1109,282.0057,0.0016165,0.00025539,0.0,0 STARLINK-5134,1 53976U 22125N   23013.15543201  .00025539  00000-0  16165-2 0  9997,2 53976  53.2147 333.3345 0001548  78.1109 282.0057 15.08848843 15832,6917.853,95.437,540.789,538.6469999999998,0.0
53976.0,STARLINK-5134,PAYLOAD,2023-01-14 03:34:36,15.08869791,0.0001439,53.2149,328.8743,88.68700000000001,271.4287,0.0024452,0.00038874,0.0,0 STARLINK-5134,1 53976U 22125N   23014.14903127  .00038874  00000-0  24452-2 0  9998,2 53976  53.2149 328.8743 0001439  88.6870 271.4287 15.08869791 15983,6917.789000000001,95.436,540.65,538.659,0.0
53976.0,STARLINK-5134,PAYLOAD,2023-01-15 03:25:23,15.08874585,0.0002572,53.2153,324.4132,86.2345,273.8941,0.0026787,0.00042644,0.0,0 STARLINK-5134,1 53976U 22125N   23015.14263227  .00042644  00000-0  26787-2 0  9992,2 53976  53.2153 324.4132 0002572  86.2345 273.8941 15.08874585 16130,6917.775,95.435,541.419,537.86,0.0
53976.0,STARLINK-5134,PAYLOAD,2023-01-15 05:00:46,15.08866602,0.0001549,53.2151,324.1177,77.5684,282.5481,0.0023719,0.00037691,0.0,0 STARLINK-5134,1 53976U 22125N   23015.20887171  .00037691  00000-0  23719-2 0  9997,2 53976  53.2151 324.1177 0001549  77.5684 282.5481 15.08866602 16144,6917.799,95.436,540.736,538.5930000000001,0.0
53976.0,STARLINK-5134,PAYLOAD,2023-01-15 19:19:14,15.08861479,0.0002201999999999,53.2157,321.4394,78.6899,281.4341,0.0017739999999999,0.00028075,0.0,0 STARLINK-5134,1 53976U 22125N   23015.80503069  .00028075  00000-0  17740-2 0  9997,2 53976  53.2157 321.4394 0002202  78.6899 281.4341 15.08861479 16238,6917.815,95.436,541.203,538.156,0.0
53976.0,STARLINK-5134,PAYLOAD,2023-01-16 12:48:28,15.08857633,0.0002102,53.2147,318.1682,56.8095,303.3099,0.00053274,8.205e-05,0.0,0 STARLINK-5134,1 53976U 22125N   23016.53366232  .00008205  00000-0  53274-3 0  9993,2 53976  53.2147 318.1682 0002102  56.8095 303.3099 15.08857633 16270,6917.826,95.436,541.146,538.237,0.0
53976.0,STARLINK-5134,PAYLOAD,2023-01-16 20:45:24,15.08810822,0.0001536,53.2149,316.6824,65.1819,294.9333,-0.001082,-0.00017453,0.0,0 STARLINK-5134,1 53976U 22125N   23016.86487127 -.00017453  00000-0 -10820-2 0  9992,2 53976  53.2149 316.6824 0001536  65.1819 294.9333 15.08810822 16321,6917.97,95.439,540.8969999999999,538.7719999999999,0.0
53976.0,STARLINK-5134,PAYLOAD,2023-01-17 03:06:58,15.08801488,0.0001385,53.2149,315.4945,66.46300000000001,293.6507,0.0011705,0.0001837,0.0,0 STARLINK-5134,1 53976U 22125N   23017.12984020  .00018370  00000-0  11705-2 0  9996,2 53976  53.2149 315.4945 0001385  66.4630 293.6507 15.08801488 16438,6917.9980000000005,95.44,540.821,538.905,0.0
53976.0,STARLINK-5134,PAYLOAD,2023-01-17 12:39:17,15.08825948,0.0001434,53.2148,313.7085,56.1557,303.9572,0.0020511999999999,0.00032495,0.0,0 STARLINK-5134,1 53976U 22125N   23017.52728722  .00032495  00000-0  20512-2 0  9995,2 53976  53.2148 313.7085 0001434  56.1557 303.9572 15.08825948 16425,6917.923000000001,95.438,540.78,538.7959999999999,0.0
53976.0,STARLINK-5134,PAYLOAD,2023-01-18 04:33:08,15.08880304,0.0001426,53.2145,310.7341,57.2074,302.9055,0.0028568,0.00045522,0.0,0 STARLINK-5134,1 53976U 22125N   23018.18968225  .00045522  00000-0  28568-2 0  9996,2 53976  53.2145 310.7341 0001426  57.2074 302.9055 15.08880304 16591,6917.757,95.435,540.609,538.636,0.0
53976.0,STARLINK-5134,PAYLOAD,2023-01-18 12:30:03,15.08874344,0.0001242,53.2143,309.2468,54.5896,305.5212,0.0018312,0.00029003,0.0,0 STARLINK-5134,1 53976U 22125N   23018.52087866  .00029003  00000-0  18312-2 0  9999,2 53976  53.2143 309.2468 0001242  54.5896 305.5212 15.08874344 16579,6917.775,95.435,540.5,538.781,0.0
53976.0,STARLINK-5134,PAYLOAD,2023-01-19 01:13:08,15.08880349,0.0001325,53.2151,306.8685,69.2038,290.9096,0.0018021,0.00028541,0.0,0 STARLINK-5134,1 53976U 22125N   23019.05079226  .00028541  00000-0  18021-2 0  9992,2 53976  53.2151 306.8685 0001325  69.2038 290.9096 15.08880349 16721,6917.757,95.435,540.539,538.705,0.0
53976.0,STARLINK-5134,PAYLOAD,2023-01-19 04:23:54,15.08885087,0.0001334,53.215,306.2738,69.7107,290.4029,0.0017507999999999,0.0002771999999999,0.0,0 STARLINK-5134,1 53976U 22125N   23019.18326863  .00027720  00000-0  17508-2 0  9995,2 53976  53.2150 306.2738 0001334  69.7107 290.4029 15.08885087 16674,6917.743,95.435,540.53,538.685,0.0
53976.0,STARLINK-5134,PAYLOAD,2023-01-20 01:03:56,15.08849636,0.0001190999999999,53.2149,302.4073,87.9567,272.1561,0.0022122,0.00035104,0.0,0 STARLINK-5134,1 53976U 22125N   23020.04439912  .00035104  00000-0  22122-2 0  9995,2 53976  53.2149 302.4073 0001191  87.9567 272.1561 15.08849636 16875,6917.851,95.437,540.54,538.8919999999999,0.0
53976.0,STARLINK-5134,PAYLOAD,2023-01-20 05:50:05,15.08843643,0.0001014,53.2146,301.5147,85.1717,274.9391,0.0012610999999999,0.00019841,0.0,0 STARLINK-5134,1 53976U 22125N   23020.24311954  .00019841  00000-0  12611-2 0  9994,2 53976  53.2146 301.5147 0001014  85.1717 274.9391 15.08843643 16902,6917.869000000001,95.437,540.436,539.033,0.0
53976.0,STARLINK-5134,PAYLOAD,2023-01-20 12:11:38,15.08832751,0.0001496,53.2148,300.3298,42.7016,317.4092,0.0009414,0.00014723,0.0,0 STARLINK-5134,1 53976U 22125N   23020.50808392  .00014723  00000-0  94140-3 0  9992,2 53976  53.2148 300.3298 0001496  42.7016 317.4092 15.08832751 16946,6917.903,95.438,540.802,538.7330000000001,0.0
53976.0,STARLINK-5134,PAYLOAD,2023-01-21 04:05:29,15.08848584,0.000131,53.215,297.3513,78.5893,281.5246,0.0021301,0.00033783,0.0,0 STARLINK-5134,1 53976U 22125N   23021.17048465  .00033783  00000-0  21301-2 0  9998,2 53976  53.2150 297.3513 0001310  78.5893 281.5246 15.08848584 17044,6917.854,95.437,540.625,538.813,0.0
53976.0,STARLINK-5134,PAYLOAD,2023-01-21 21:34:44,15.08850213,0.0001149999999999,53.2168,294.0849,61.6484,298.4624,0.00037606,5.704e-05,0.0,0 STARLINK-5134,1 53976U 22125N   23021.89912091  .00005704  00000-0  37606-3 0  9990,2 53976  53.2168 294.0849 0001150  61.6484 298.4624 15.08850213 17151,6917.849,95.437,540.51,538.919,0.0
53976.0,STARLINK-5134,PAYLOAD,2023-01-22 03:56:16,15.08865199,0.0001425,53.2162,292.8886,88.68,271.4355,0.00077795,0.00012123,0.0,0 STARLINK-5134,1 53976U 22125N   23022.16407546  .00012123  00000-0  77795-3 0  9991,2 53976  53.2162 292.8886 0001425  88.6800 271.4355 15.08865199 17193,6917.803000000001,95.436,540.654,538.683,0.0
